      2.10          N: GNSS NAV DATA                        RINEX VERSION / TYPE
fic2rin                                 03/16/2019 00:19:21 PGM / RUN BY / DATE
                                                            END OF HEADER
25 19  3 15 12  0  0.0-7.333452813327e-04-5.002220859751e-12 0.000000000000e+00
    5.000000000000e+01 7.443750000000e+01 4.169816546739e-09-9.945064067608e-01
    3.904104232788e-06 8.331808610819e-03 7.504597306252e-06 5.153744779587e+03
    4.752000000000e+05 1.285225152969e-07 2.583563626035e+00 1.490116119385e-07
    9.711429042972e-01 2.400625000000e+02 8.696944904035e-01-8.017119659499e-09
   -1.092902666640e-10 1.000000000000e+00 2.044000000000e+03 0.000000000000e+00
    2.400000000000e+00 0.000000000000e+00 5.587935447693e-09 5.000000000000e+01
    4.680000000000e+05 4.000000000000e+00
13 19  3 15 12  0  0.0-7.162895053625e-05 1.364242052659e-12 0.000000000000e+00
    5.800000000000e+01 1.409375000000e+01 4.763055543239e-09 1.766366755511e+00
    6.575137376785e-07 3.660308080725e-03 7.161870598793e-06 5.153654907227e+03
    4.752000000000e+05-3.352761268616e-08 6.076510186240e-01-1.043081283569e-07
    9.682525204954e-01 2.449687500000e+02 1.352625165490e+00-7.999618930524e-09
   -2.571535686212e-11 1.000000000000e+00 2.044000000000e+03 0.000000000000e+00
    2.400000000000e+00 0.000000000000e+00-1.117587089539e-08 5.800000000000e+01
    4.680000000000e+05 4.000000000000e+00
 7 19  3 15 12  0  0.0 1.451419666409e-05-7.275957614183e-12 0.000000000000e+00
    5.800000000000e+01 3.537500000000e+01 4.751983653479e-09 6.844546039959e-02
    1.849606633186e-06 1.232089463156e-02 8.556991815567e-06 5.153603572845e+03
    4.752000000000e+05 2.607703208923e-08 1.548095883173e+00 1.024454832077e-07
    9.557551185570e-01 2.092500000000e+02-2.475805952216e+00-8.297131323109e-09
   -5.443083869148e-10 1.000000000000e+00 2.044000000000e+03 0.000000000000e+00
    2.400000000000e+00 0.000000000000e+00-1.117587089539e-08 5.800000000000e+01
    4.680000000000e+05 4.000000000000e+00
15 19  3 15 12  0  0.0-3.234334290028e-04 1.818989403546e-12 0.000000000000e+00
    8.900000000000e+01 1.181250000000e+01 5.712380800732e-09 1.968350859931e+00
    5.234032869339e-07 1.122887979727e-02 7.204711437225e-06 5.153644926071e+03
    4.752000000000e+05-3.129243850708e-07 3.934279937980e-01-1.043081283569e-07
    9.283676390157e-01 2.264687500000e+02 7.662508157078e-01-8.499639758398e-09
    1.160762636137e-10 1.000000000000e+00 2.044000000000e+03 0.000000000000e+00
    2.400000000000e+00 0.000000000000e+00-1.071020960808e-08 8.900000000000e+01
    4.680000000000e+05 4.000000000000e+00
32 19  3 15 12  0  0.0-1.801140606403e-04 1.853095454862e-11 0.000000000000e+00
    7.000000000000e+01 7.906250000000e+00 4.956992192907e-09-2.730139510709e+00
    4.433095455170e-07 2.719584619626e-03 7.333233952522e-06 5.153759128571e+03
    4.752000000000e+05-1.303851604462e-08 4.779291234835e-01-1.378357410431e-07
    9.571042947556e-01 2.353437500000e+02-2.587988153009e+00-8.165340119191e-09
   -2.928693420408e-11 1.000000000000e+00 2.044000000000e+03 0.000000000000e+00
    2.400000000000e+00 0.000000000000e+00 4.656612873077e-10 7.000000000000e+01
    4.680000000000e+05 4.000000000000e+00
17 19  3 15 12  0  0.0 2.375757321715e-05 5.684341886081e-12 0.000000000000e+00
    4.600000000000e+01-5.375000000000e+00 3.972665477463e-09 2.793060917833e+00
   -2.365559339523e-07 1.292269851547e-02 2.920627593994e-06 5.153710851669e+03
    4.752000000000e+05 8.195638656616e-08-2.603280762762e+00-4.470348358154e-08
    9.840975837059e-01 3.329062500000e+02-1.715792758798e+00-7.893543083468e-09
    6.357407668690e-11 1.000000000000e+00 2.044000000000e+03 0.000000000000e+00
    2.400000000000e+00 0.000000000000e+00-1.117587089539e-08 4.600000000000e+01
    4.680000000000e+05 4.000000000000e+00
10 19  3 15 12  0  0.0 9.672716259956e-05-8.526512829121e-12 0.000000000000e+00
    9.100000000000e+01-2.368750000000e+01 4.528760069606e-09-1.385526471047e+00
   -1.309439539909e-06 4.401807673275e-03 9.538605809212e-06 5.153663068771e+03
    4.752000000000e+05 2.980232238770e-08-5.638252538135e-01-4.284083843231e-08
    9.627205352774e-01 1.944687500000e+02-2.724736521219e+00-7.929258856887e-09
    3.960879272235e-10 1.000000000000e+00 2.044000000000e+03 0.000000000000e+00
    2.400000000000e+00 0.000000000000e+00 1.862645149231e-09 9.100000000000e+01
    4.680000000000e+05 4.000000000000e+00
12 19  3 15 12  0  0.0 2.599577419460e-04-3.296918293927e-12 0.000000000000e+00
    1.040000000000e+02 7.503125000000e+01 3.995166414717e-09-6.727549766366e-01
    3.965571522713e-06 7.555197807960e-03 7.774680852890e-06 5.153683475494e+03
    4.752000000000e+05-2.235174179077e-08 2.646955213566e+00 1.173466444016e-07
    9.837150467202e-01 2.412500000000e+02 1.046964309877e+00-7.969260523117e-09
   -3.321566928024e-11 1.000000000000e+00 2.044000000000e+03 0.000000000000e+00
    2.400000000000e+00 0.000000000000e+00-1.257285475731e-08 1.040000000000e+02
    4.680000000000e+05 4.000000000000e+00
31 19  3 15 12  0  0.0 5.201995372772e-05-2.614797267597e-12 0.000000000000e+00
    4.500000000000e+01 2.656250000000e+01 4.569118893571e-09-3.359344662532e-01
    1.326203346252e-06 9.228419396095e-03 8.413568139076e-06 5.153578380585e+03
    4.752000000000e+05 1.769512891769e-07 1.561856154995e+00 3.725290298462e-09
    9.603198662285e-01 2.184375000000e+02-4.818799488055e-03-8.126409926163e-09
   -4.203746531488e-10 1.000000000000e+00 2.044000000000e+03 0.000000000000e+00
    2.400000000000e+00 0.000000000000e+00-1.350417733192e-08 4.500000000000e+01
    4.680000000000e+05 4.000000000000e+00
29 19  3 15 12  0  0.0 2.488675527275e-04-8.753886504564e-12 0.000000000000e+00
    4.800000000000e+01-5.937500000000e+00 4.004452515806e-09-2.594423096616e+00
   -3.073364496231e-07 7.907412946224e-04 3.559514880180e-06 5.153552593231e+03
    4.752000000000e+05 1.676380634308e-08-2.592259237431e+00-3.539025783539e-08
    9.855193952500e-01 3.238750000000e+02 1.449587475263e+00-8.019262605905e-09
    7.321733551020e-11 1.000000000000e+00 2.044000000000e+03 0.000000000000e+00
    2.400000000000e+00 0.000000000000e+00-1.024454832077e-08 4.800000000000e+01
    4.680000000000e+05 4.000000000000e+00
30 19  3 15 12  0  0.0-6.885081529617e-05-6.593836587854e-12 0.000000000000e+00
    1.150000000000e+02 2.846875000000e+01 4.988064915783e-09 8.034124605538e-02
    1.255422830582e-06 3.757740953006e-03 8.920207619667e-06 5.153614990234e+03
    4.752000000000e+05 1.862645149231e-08 1.577371807090e+00-1.303851604462e-08
    9.412367655122e-01 1.940312500000e+02-3.021777778659e+00-8.273201754918e-09
   -5.471656487884e-10 1.000000000000e+00 2.044000000000e+03 0.000000000000e+00
    3.400000000000e+00 0.000000000000e+00 3.725290298462e-09 1.150000000000e+02
    4.680000000000e+05 4.000000000000e+00
19 19  3 15 12  0  0.0-3.420528955758e-04 4.320099833421e-12 0.000000000000e+00
    9.900000000000e+01-6.093750000000e+00 4.143386874409e-09-6.795384502355e-01
   -1.303851604462e-07 9.433532599360e-03 3.568828105927e-06 5.153625854492e+03
    4.752000000000e+05-9.499490261078e-08-2.556898216525e+00 1.601874828339e-07
    9.818448303039e-01 3.249062500000e+02 1.357029556859e+00-8.314274894351e-09
    1.496490906282e-10 1.000000000000e+00 2.044000000000e+03 0.000000000000e+00
    3.400000000000e+00 0.000000000000e+00-1.536682248116e-08 9.900000000000e+01
    4.680000000000e+05 4.000000000000e+00
18 19  3 15 12  0  0.0 3.502611070871e-05 3.524291969370e-12 0.000000000000e+00
    9.500000000000e+01-8.834375000000e+01 4.730554189427e-09 4.392777218632e-01
   -4.777684807777e-06 1.509831612930e-02 7.303431630135e-06 5.153727197647e+03
    4.752000000000e+05-1.937150955200e-07-1.656883654666e+00-1.676380634308e-08
    9.529459223198e-01 2.365625000000e+02 1.377758610113e+00-8.532498269944e-09
   -4.071598169835e-11 1.000000000000e+00 2.044000000000e+03 0.000000000000e+00
    2.400000000000e+00 0.000000000000e+00-6.053596735001e-09 9.500000000000e+01
    4.680000000000e+05 4.000000000000e+00
20 19  3 15 12  0  0.0 5.231122486293e-04 3.410605131648e-13 0.000000000000e+00
    6.500000000000e+01-3.665625000000e+01 5.256290374164e-09 3.467481796821e-01
   -1.925975084305e-06 4.368883674033e-03 9.428709745407e-06 5.153678630829e+03
    4.752000000000e+05-4.097819328308e-08-6.798215980297e-01-7.264316082001e-08
    9.302893677034e-01 1.820000000000e+02 2.306433302468e+00-8.395349700013e-09
    3.385855320179e-10 1.000000000000e+00 2.044000000000e+03 0.000000000000e+00
    3.400000000000e+00 0.000000000000e+00-8.381903171539e-09 6.500000000000e+01
    4.680000000000e+05 4.000000000000e+00
28 19  3 15 12  0  0.0 7.663238793612e-04 4.547473508865e-13 0.000000000000e+00
    7.500000000000e+01 1.076562500000e+02 3.761228098819e-09-2.603426541085e+00
    5.453824996948e-06 1.917603134643e-02 7.441267371178e-06 5.153704957962e+03
    4.752000000000e+05 2.216547727585e-07 2.669866631919e+00 2.048909664154e-08
    9.830269734421e-01 2.469062500000e+02-1.471175691527e+00-7.484240320079e-09
    3.214419607765e-11 1.000000000000e+00 2.044000000000e+03 0.000000000000e+00
    2.400000000000e+00 0.000000000000e+00-1.117587089539e-08 7.500000000000e+01
    4.680000000000e+05 4.000000000000e+00
 4 19  3 15 12  0  0.0 1.338445581496e-04 7.162270776462e-12 0.000000000000e+00
    1.150000000000e+02 1.318750000000e+01 4.949491880489e-09 8.685512872188e-02
    8.177012205124e-07 3.417968982831e-04 7.236376404762e-06 5.153793102264e+03
    4.752000000000e+05 4.842877388000e-08 5.162070830799e-01-1.862645149231e-08
    9.601767591932e-01 2.392812500000e+02-1.722646137938e+00-8.156411175836e-09
   -4.643050544549e-12 1.000000000000e+00 2.044000000000e+03 0.000000000000e+00
    2.400000000000e+00 6.300000000000e+01-8.847564458847e-09 8.830000000000e+02
    4.680600000000e+05 4.000000000000e+00
